{"type": "FeatureCollection", "features": [ {"type": "Feature", "properties": {"norad_id": 61182, "name": "GSAT0232 (GALILEO 32)", "group": "gnss", "lat": 38.73433638832493, "lon": -100.08405601668598, "alt_km": 23222.505248456873, "timestamp": "2025-12-26T07:29:18.699804+00:00", "meta": {"OBJECT_NAME": "GSAT0232 (GALILEO 32)", "OBJECT_ID": "2024-167A", "EPOCH": "2025-12-24T18:25:47.943264", "MEAN_MOTION": 1.70473505, "ECCENTRICITY": 0.0001887, "INCLINATION": 55.2374, "RA_OF_ASC_NODE": 226.1008, "ARG_OF_PERICENTER": 202.1814, "MEAN_ANOMALY": 339.8736, "EPHEMERIS_TYPE": 0, "CLASSIFICATION_TYPE": "U", "NORAD_CAT_ID": 61182, "ELEMENT_SET_NO": 999, "REV_AT_EPOCH": 790, "BSTAR": 0, "MEAN_MOTION_DOT": 7.1e-07, "MEAN_MOTION_DDOT": 0}, "tle": {"line1": "1 61182U 24167A   25358.76791601  .00000071  00000+0  00000+0 0  9994", "line2": "2 61182  55.2374 226.1008 0001887 202.1814 339.8736  1.70473505  7904"}}, "geometry": {"type": "Point", "coordinates": [-100.08405601668598, 38.73433638832493]}}, {"type": "Feature", "properties": {"norad_id": 61183, "name": "GSAT0226 (GALILEO 31)", "group": "gnss", "lat": 14.42969870548788, "lon": 35.785509814114235, "alt_km": 23218.35389715859, "timestamp": "2025-12-26T07:29:18.699815+00:00", "meta": {"OBJECT_NAME": "GSAT0226 (GALILEO 31)", "OBJECT_ID": "2024-167B", "EPOCH": "2025-12-25T01:44:41.758656", "MEAN_MOTION": 1.70473602, "ECCENTRICITY": 0.00012523, "INCLINATION": 55.236, "RA_OF_ASC_NODE": 226.0978, "ARG_OF_PERICENTER": 109.4084, "MEAN_ANOMALY": 12.3648, "EPHEMERIS_TYPE": 0, "CLASSIFICATION_TYPE": "U", "NORAD_CAT_ID": 61183, "ELEMENT_SET_NO": 999, "REV_AT_EPOCH": 788, "BSTAR": 0, "MEAN_MOTION_DOT": 7.1e-07, "MEAN_MOTION_DDOT": 0}, "tle": {"line1": "1 61183U 24167B   25359.07270554  .00000071  00000+0  00000+0 0  9999", "line2": "2 61183  55.2360 226.0978 0001252 109.4084  12.3648  1.70473602  7889"}}, "geometry": {"type": "Point", "coordinates": [35.785509814114235, 14.42969870548788]}}, {"type": "Feature", "properties": {"norad_id": 61186, "name": "BEIDOU-3 M25 (C47)", "group": "gnss", "lat": -11.622930200196619, "lon": 136.62722152259386, "alt_km": 21534.076188509174, "timestamp": "2025-12-26T07:29:18.699828+00:00", "meta": {"OBJECT_NAME": "BEIDOU-3 M25 (C47)", "OBJECT_ID": "2024-168B", "EPOCH": "2025-12-25T19:23:17.503008", "MEAN_MOTION": 1.86229973, "ECCENTRICITY": 0.00054096, "INCLINATION": 54.6304, "RA_OF_ASC_NODE": 308.2683, "ARG_OF_PERICENTER": 300.2841, "MEAN_ANOMALY": 276.0104, "EPHEMERIS_TYPE": 0, "CLASSIFICATION_TYPE": "U", "NORAD_CAT_ID": 61186, "ELEMENT_SET_NO": 999, "REV_AT_EPOCH": 855, "BSTAR": 0, "MEAN_MOTION_DOT": -5.5e-07, "MEAN_MOTION_DDOT": 0}, "tle": {"line1": "1 61186U 24168B   25359.80784147 -.00000055  00000+0  00000+0 0  9995", "line2": "2 61186  54.6304 308.2683 0005409 300.2841 276.0104  1.86229973  8557"}}, "geometry": {"type": "Point", "coordinates": [136.62722152259386, -11.622930200196619]}}, {"type": "Feature", "properties": {"norad_id": 61187, "name": "BEIDOU-3 M27 (C49)", "group": "gnss", "lat": -24.634401654181996, "lon": -70.77517585947776, "alt_km": 21524.429497620677, "timestamp": "2025-12-26T07:29:18.699842+00:00", "meta": {"OBJECT_NAME": "BEIDOU-3 M27 (C49)", "OBJECT_ID": "2024-168C", "EPOCH": "2025-12-25T00:22:38.802432", "MEAN_MOTION": 1.86230181, "ECCENTRICITY": 0.00025443, "INCLINATION": 54.6266, "RA_OF_ASC_NODE": 308.2793, "ARG_OF_PERICENTER": 341.3451, "MEAN_ANOMALY": 198.8284, "EPHEMERIS_TYPE": 0, "CLASSIFICATION_TYPE": "U", "NORAD_CAT_ID": 61187, "ELEMENT_SET_NO": 999, "REV_AT_EPOCH": 601, "BSTAR": 0, "MEAN_MOTION_DOT": -5.4e-07, "MEAN_MOTION_DDOT": 0}, "tle": {"line1": "1 61187U 24168C   25359.01572688 -.00000054  00000+0  00000+0 0  9993", "line2": "2 61187  54.6266 308.2793 0002544 341.3451 198.8284  1.86230181  6019"}}, "geometry": {"type": "Point", "coordinates": [-70.77517585947776, -24.634401654181996]}}, {"type": "Feature", "properties": {"norad_id": 62339, "name": "GPS BIII-7  (PRN 01)", "group": "gnss", "lat": -15.726460466252544, "lon": -30.229808195589335, "alt_km": 20150.152195186387, "timestamp": "2025-12-26T07:29:18.699854+00:00", "meta": {"OBJECT_NAME": "GPS BIII-7  (PRN 01)", "OBJECT_ID": "2024-242A", "EPOCH": "2025-12-25T14:06:28.687392", "MEAN_MOTION": 2.00568026, "ECCENTRICITY": 0.0012842, "INCLINATION": 54.9198, "RA_OF_ASC_NODE": 341.2207, "ARG_OF_PERICENTER": 346.3867, "MEAN_ANOMALY": 191.38, "EPHEMERIS_TYPE": 0, "CLASSIFICATION_TYPE": "U", "NORAD_CAT_ID": 62339, "ELEMENT_SET_NO": 999, "REV_AT_EPOCH": 777, "BSTAR": 0, "MEAN_MOTION_DOT": -6e-07, "MEAN_MOTION_DDOT": 0}, "tle": {"line1": "1 62339U 24242A   25359.58783203 -.00000060  00000+0  00000+0 0  9992", "line2": "2 62339  54.9198 341.2207 0012842 346.3867 191.3800  2.00568026  7776"}}, "geometry": {"type": "Point", "coordinates": [-30.229808195589335, -15.726460466252544]}}, {"type": "Feature", "properties": {"norad_id": 62850, "name": "NVS-02 (IRNSS-1K)", "group": "gnss", "lat": -19.815671939525554, "lon": -107.411262750711, "alt_km": 8266.454328075608, "timestamp": "2025-12-26T07:29:18.699866+00:00", "meta": {"OBJECT_NAME": "NVS-02 (IRNSS-1K)", "OBJECT_ID": "2025-020A", "EPOCH": "2025-12-23T02:48:28.612512", "MEAN_MOTION": 2.17602057, "ECCENTRICITY": 0.73473509, "INCLINATION": 20.9588, "RA_OF_ASC_NODE": 323.9017, "ARG_OF_PERICENTER": 32.9618, "MEAN_ANOMALY": 356.3768, "EPHEMERIS_TYPE": 0, "CLASSIFICATION_TYPE": "U", "NORAD_CAT_ID": 62850, "ELEMENT_SET_NO": 999, "REV_AT_EPOCH": 714, "BSTAR": 0.00026724694, "MEAN_MOTION_DOT": 1.47e-06, "MEAN_MOTION_DDOT": 0}, "tle": {"line1": "1 62850U 25020A   25357.11699783  .00000147  00000+0  26725-3 0  9992", "line2": "2 62850  20.9588 323.9017 7347350  32.9618 356.3768  2.17602057  7148"}}, "geometry": {"type": "Point", "coordinates": [-107.411262750711, -19.815671939525554]}}, {"type": "Feature", "properties": {"norad_id": 62876, "name": "QZS-6 (QZSS/PRN 200)", "group": "gnss", "lat": -0.05783419404062199, "lon": -62.078901903482965, "alt_km": 35779.61103159865, "timestamp": "2025-12-26T07:29:18.699880+00:00", "meta": {"OBJECT_NAME": "QZS-6 (QZSS/PRN 200)", "OBJECT_ID": "2025-023A", "EPOCH": "2025-12-25T21:36:38.577600", "MEAN_MOTION": 1.0027017, "ECCENTRICITY": 0.00017113, "INCLINATION": 0.0607, "RA_OF_ASC_NODE": 74.9398, "ARG_OF_PERICENTER": 207.1775, "MEAN_ANOMALY": 227.235, "EPHEMERIS_TYPE": 0, "CLASSIFICATION_TYPE": "U", "NORAD_CAT_ID": 62876, "ELEMENT_SET_NO": 999, "REV_AT_EPOCH": 322, "BSTAR": 0, "MEAN_MOTION_DOT": -2.12e-06, "MEAN_MOTION_DDOT": 0}, "tle": {"line1": "1 62876U 25023A   25359.90044650 -.00000212  00000+0  00000+0 0  9997", "line2": "2 62876   0.0607  74.9398 0001711 207.1775 227.2350  1.00270170  3229"}}, "geometry": {"type": "Point", "coordinates": [-62.078901903482965, -0.05783419404062199]}}, {"type": "Feature", "properties": {"norad_id": 63130, "name": "COSMOS 2584 (704K)", "group": "gnss", "lat": -59.239067645728, "lon": -49.727847467325475, "alt_km": 19119.122664234044, "timestamp": "2025-12-26T07:29:18.699894+00:00", "meta": {"OBJECT_NAME": "COSMOS 2584 (704K)", "OBJECT_ID": "2025-042A", "EPOCH": "2025-12-24T02:34:25.549824", "MEAN_MOTION": 2.13102981, "ECCENTRICITY": 0.00077651, "INCLINATION": 64.9819, "RA_OF_ASC_NODE": 78.7588, "ARG_OF_PERICENTER": 220.6893, "MEAN_ANOMALY": 139.3012, "EPHEMERIS_TYPE": 0, "CLASSIFICATION_TYPE": "U", "NORAD_CAT_ID": 63130, "ELEMENT_SET_NO": 999, "REV_AT_EPOCH": 631, "BSTAR": 0, "MEAN_MOTION_DOT": 1e-08, "MEAN_MOTION_DDOT": 0}, "tle": {"line1": "1 63130U 25042A   25358.10724016  .00000001  00000+0  00000+0 0  9999", "line2": "2 63130  64.9819  78.7588 0007765 220.6893 139.3012  2.13102981  6316"}}, "geometry": {"type": "Point", "coordinates": [-49.727847467325475, -59.239067645728]}}, {"type": "Feature", "properties": {"norad_id": 64202, "name": "GPS BIII-8  (PRN 21)", "group": "gnss", "lat": 8.496167536214504, "lon": -147.8708887107534, "alt_km": 20194.328670724484, "timestamp": "2025-12-26T07:29:18.699905+00:00", "meta": {"OBJECT_NAME": "GPS BIII-8  (PRN 21)", "OBJECT_ID": "2025-116A", "EPOCH": "2025-12-25T04:39:33.135264", "MEAN_MOTION": 2.00557406, "ECCENTRICITY": 0.000599, "INCLINATION": 55.1144, "RA_OF_ASC_NODE": 38.1386, "ARG_OF_PERICENTER": 310.9546, "MEAN_ANOMALY": 131.5738, "EPHEMERIS_TYPE": 0, "CLASSIFICATION_TYPE": "U", "NORAD_CAT_ID": 64202, "ELEMENT_SET_NO": 999, "REV_AT_EPOCH": 438, "BSTAR": 0, "MEAN_MOTION_DOT": -5.1e-07, "MEAN_MOTION_DDOT": 0}, "tle": {"line1": "1 64202U 25116A   25359.19413351 -.00000051  00000+0  00000+0 0  9995", "line2": "2 64202  55.1144  38.1386 0005990 310.9546 131.5738  2.00557406  4388"}}, "geometry": {"type": "Point", "coordinates": [-147.8708887107534, 8.496167536214504]}}, {"type": "Feature", "properties": {"norad_id": 65590, "name": "COSMOS 2596 (708K)", "group": "gnss", "lat": 8.957012299033543, "lon": -34.744681428209766, "alt_km": 19112.665291315236, "timestamp": "2025-12-26T07:29:18.699916+00:00", "meta": {"OBJECT_NAME": "COSMOS 2596 (708K)", "OBJECT_ID": "2025-206B", "EPOCH": "2025-12-24T10:04:00.075648", "MEAN_MOTION": 2.13100293, "ECCENTRICITY": 0.00140917, "INCLINATION": 64.738, "RA_OF_ASC_NODE": 321.0695, "ARG_OF_PERICENTER": 307.5813, "MEAN_ANOMALY": 50.2886, "EPHEMERIS_TYPE": 0, "CLASSIFICATION_TYPE": "U", "NORAD_CAT_ID": 65590, "ELEMENT_SET_NO": 999, "REV_AT_EPOCH": 218, "BSTAR": 0, "MEAN_MOTION_DOT": -3.5e-07, "MEAN_MOTION_DDOT": 0}, "tle": {"line1": "1 65590U 25206B   25358.41944532 -.00000035  00000+0  00000+0 0  9992", "line2": "2 65590  64.7380 321.0695 0014091 307.5813  50.2886  2.13100293  2184"}}, "geometry": {"type": "Point", "coordinates": [-34.744681428209766, 8.957012299033543]}}]}